{
    "links": {
        "self": "http://www.neowsapp.com/rest/v1/neo/3986740?api_key=iIulBulltgU6a56xZRHN4H3l9WmuAYTsLGpBGhQ2"
    },
    "id": "3986740",
    "neo_reference_id": "3986740",
    "name": "(2020 BX)",
    "designation": "2020 BX",
    "nasa_jpl_url": "http://ssd.jpl.nasa.gov/sbdb.cgi?sstr=3986740",
    "absolute_magnitude_h": 21.974,
    "estimated_diameter": {
        "kilometers": {
            "estimated_diameter_min": 0.1070914938,
            "estimated_diameter_max": 0.23946386
        },
        "meters": {
            "estimated_diameter_min": 107.0914938251,
            "estimated_diameter_max": 239.463860005
        },
        "miles": {
            "estimated_diameter_min": 0.0665435486,
            "estimated_diameter_max": 0.1487958982
        },
        "feet": {
            "estimated_diameter_min": 351.3500566013,
            "estimated_diameter_max": 785.6426104588
        }
    },
    "is_potentially_hazardous_asteroid": true,
    "close_approach_data": [
        {
            "close_approach_date": "2020-02-14",
            "close_approach_date_full": "2020-Feb-14 05:14",
            "epoch_date_close_approach": 1581657240000,
            "relative_velocity": {
                "kilometers_per_second": "12.1635148595",
                "kilometers_per_hour": "43788.6534941424",
                "miles_per_hour": "27208.5663891798"
            },
            "miss_distance": {
                "astronomical": "0.3351769916",
                "lunar": "130.3838497324",
                "kilometers": "50141764.016367892",
                "miles": "31156647.4068332296"
            },
            "orbiting_body": "Earth"
        }
    ],
    "orbital_data": {
        "orbit_id": "1",
        "orbit_determination_date": "2020-01-20 04:12:08",
        "first_observation_date": "2020-01-17",
        "last_observation_date": "2020-01-20",
        "data_arc_in_days": 3,
        "observations_used": 22,
        "orbit_uncertainty": "9",
        "minimum_orbit_intersection": ".043825",
        "jupiter_tisserand_invariant": "4.454",
        "epoch_osculation": "2458866.5",
        "eccentricity": ".4088075862562892",
        "semi_major_axis": "1.465894585240558",
        "inclination": "20.95019354940623",
        "ascending_node_longitude": "92.58742562738662",
        "orbital_period": "648.2649451637067",
        "perihelion_distance": ".8666257581422016",
        "perihelion_argument": "130.7631922710204",
        "aphelion_distance": "2.065163412338916",
        "perihelion_time": "2458959.554623597305",
        "mean_anomaly": "308.3241154022757",
        "mean_motion": ".5553285006165019",
        "equinox": "J2000",
        "orbit_class": {
            "orbit_class_type": "APO",
            "orbit_class_description": "Near-Earth asteroid orbits which cross the Earth’s orbit similar to that of 1862 Apollo",
            "orbit_class_range": "a (semi-major axis) > 1.0 AU; q (perihelion) < 1.017 AU"
        }
    },
    "is_sentry_object": false
}